[{"OBJECT_NAME":"LEMUR-2-ARIANNA","OBJECT_ID":"2025-009CU","EPOCH":"2026-03-05T17:46:24.471264","MEAN_MOTION":15.00793276,"ECCENTRICITY":0.00044842,"INCLINATION":97.7013,"RA_OF_ASC_NODE":147.08,"ARG_OF_PERICENTER":155.5198,"MEAN_ANOMALY":204.6239,"EPHEMERIS_TYPE":0,"CLASSIFICATION_TYPE":"U","NORAD_CAT_ID":62699,"ELEMENT_SET_NO":999,"REV_AT_EPOCH":6203,"BSTAR":0.00081337957,"MEAN_MOTION_DOT":0.00010278,"MEAN_MOTION_DDOT":0},{"OBJECT_NAME":"LEMUR-2-ALISIA","OBJECT_ID":"2025-009DB","EPOCH":"2026-03-05T17:42:55.757376","MEAN_MOTION":15.01059198,"ECCENTRICITY":0.00063958,"INCLINATION":97.7061,"RA_OF_ASC_NODE":147.7305,"ARG_OF_PERICENTER":168.5385,"MEAN_ANOMALY":191.5986,"EPHEMERIS_TYPE":0,"CLASSIFICATION_TYPE":"U","NORAD_CAT_ID":62706,"ELEMENT_SET_NO":999,"REV_AT_EPOCH":8463,"BSTAR":0.00080808627,"MEAN_MOTION_DOT":0.00010284,"MEAN_MOTION_DDOT":0},{"OBJECT_NAME":"LEMUR-2-ROUNDTRIPPER","OBJECT_ID":"2025-009DG","EPOCH":"2026-03-05T16:44:41.741376","MEAN_MOTION":15.01979624,"ECCENTRICITY":0.00048161,"INCLINATION":97.7305,"RA_OF_ASC_NODE":147.6551,"ARG_OF_PERICENTER":135.0712,"MEAN_ANOMALY":225.0903,"EPHEMERIS_TYPE":0,"CLASSIFICATION_TYPE":"U","NORAD_CAT_ID":62711,"ELEMENT_SET_NO":999,"REV_AT_EPOCH":6208,"BSTAR":0.00086914882,"MEAN_MOTION_DOT":0.00011337,"MEAN_MOTION_DDOT":0},{"OBJECT_NAME":"LEMUR-2-MYNAMEISJEFF","OBJECT_ID":"2025-009DH","EPOCH":"2026-03-05T16:42:35.416800","MEAN_MOTION":15.01969507,"ECCENTRICITY":0.00039869,"INCLINATION":97.7353,"RA_OF_ASC_NODE":147.9734,"ARG_OF_PERICENTER":161.551,"MEAN_ANOMALY":198.586,"EPHEMERIS_TYPE":0,"CLASSIFICATION_TYPE":"U","NORAD_CAT_ID":62712,"ELEMENT_SET_NO":999,"REV_AT_EPOCH":6208,"BSTAR":0.00088834204,"MEAN_MOTION_DOT":0.00011585,"MEAN_MOTION_DDOT":0},{"OBJECT_NAME":"LEMUR-2-LEIA-PHILIP","OBJECT_ID":"2025-052AN","EPOCH":"2026-03-05T22:30:33.182784","MEAN_MOTION":14.96578558,"ECCENTRICITY":0.0002879,"INCLINATION":97.6963,"RA_OF_ASC_NODE":318.596,"ARG_OF_PERICENTER":190.4798,"MEAN_ANOMALY":169.6364,"EPHEMERIS_TYPE":0,"CLASSIFICATION_TYPE":"U","NORAD_CAT_ID":63246,"ELEMENT_SET_NO":999,"REV_AT_EPOCH":5322,"BSTAR":0.00053898114,"MEAN_MOTION_DOT":6.081e-5,"MEAN_MOTION_DDOT":0},{"OBJECT_NAME":"LEMUR-2-LIA-MARTIN","OBJECT_ID":"2025-052AQ","EPOCH":"2026-03-05T16:36:54.322560","MEAN_MOTION":14.96744608,"ECCENTRICITY":0.0003244,"INCLINATION":97.7008,"RA_OF_ASC_NODE":318.7132,"ARG_OF_PERICENTER":154.2491,"MEAN_ANOMALY":205.8893,"EPHEMERIS_TYPE":0,"CLASSIFICATION_TYPE":"U","NORAD_CAT_ID":63248,"ELEMENT_SET_NO":999,"REV_AT_EPOCH":5319,"BSTAR":0.00067725681,"MEAN_MOTION_DOT":7.69e-5,"MEAN_MOTION_DDOT":0},{"OBJECT_NAME":"LEMUR-2-DELOITTE-1","OBJECT_ID":"2025-052BB","EPOCH":"2026-03-05T22:16:58.498176","MEAN_MOTION":14.96746271,"ECCENTRICITY":0.00032577,"INCLINATION":97.705,"RA_OF_ASC_NODE":319.258,"ARG_OF_PERICENTER":86.7997,"MEAN_ANOMALY":273.3597,"EPHEMERIS_TYPE":0,"CLASSIFICATION_TYPE":"U","NORAD_CAT_ID":63259,"ELEMENT_SET_NO":999,"REV_AT_EPOCH":5324,"BSTAR":0.00051373313,"MEAN_MOTION_DOT":5.818e-5,"MEAN_MOTION_DDOT":0},{"OBJECT_NAME":"LEMUR-2-EMERSONROSE","OBJECT_ID":"2025-052BD","EPOCH":"2026-03-05T16:06:22.695264","MEAN_MOTION":14.98172264,"ECCENTRICITY":0.0003193,"INCLINATION":97.7033,"RA_OF_ASC_NODE":319.3559,"ARG_OF_PERICENTER":59.5586,"MEAN_ANOMALY":300.5952,"EPHEMERIS_TYPE":0,"CLASSIFICATION_TYPE":"U","NORAD_CAT_ID":63261,"ELEMENT_SET_NO":999,"REV_AT_EPOCH":5323,"BSTAR":0.00064534,"MEAN_MOTION_DOT":7.6e-5,"MEAN_MOTION_DDOT":0},{"OBJECT_NAME":"LEMUR-2-MARACHE-FRAN","OBJECT_ID":"2025-052BE","EPOCH":"2026-03-05T16:52:47.177184","MEAN_MOTION":14.98825559,"ECCENTRICITY":0.00023422,"INCLINATION":97.6996,"RA_OF_ASC_NODE":319.5779,"ARG_OF_PERICENTER":43.6001,"MEAN_ANOMALY":316.5407,"EPHEMERIS_TYPE":0,"CLASSIFICATION_TYPE":"U","NORAD_CAT_ID":63262,"ELEMENT_SET_NO":999,"REV_AT_EPOCH":5325,"BSTAR":0.00077478565,"MEAN_MOTION_DOT":9.294e-5,"MEAN_MOTION_DDOT":0},{"OBJECT_NAME":"LEMUR-2-THEFALCONER","OBJECT_ID":"2025-052BG","EPOCH":"2026-03-05T22:33:01.834848","MEAN_MOTION":14.96455894,"ECCENTRICITY":0.00025631,"INCLINATION":97.6987,"RA_OF_ASC_NODE":319.001,"ARG_OF_PERICENTER":27.3199,"MEAN_ANOMALY":332.8156,"EPHEMERIS_TYPE":0,"CLASSIFICATION_TYPE":"U","NORAD_CAT_ID":63264,"ELEMENT_SET_NO":999,"REV_AT_EPOCH":5324,"BSTAR":0.000465344,"MEAN_MOTION_DOT":5.225e-5,"MEAN_MOTION_DDOT":0},{"OBJECT_NAME":"LEMUR-2-UNTITLED-SC","OBJECT_ID":"2025-061A","EPOCH":"2026-03-05T22:09:16.392960","MEAN_MOTION":15.12646284,"ECCENTRICITY":0.00171083,"INCLINATION":97.5557,"RA_OF_ASC_NODE":41.156,"ARG_OF_PERICENTER":260.7576,"MEAN_ANOMALY":99.172,"EPHEMERIS_TYPE":0,"CLASSIFICATION_TYPE":"U","NORAD_CAT_ID":63351,"ELEMENT_SET_NO":999,"REV_AT_EPOCH":5197,"BSTAR":0.00031495763,"MEAN_MOTION_DOT":5.458e-5,"MEAN_MOTION_DDOT":0},{"OBJECT_NAME":"LEMUR-2-ESPERANZA","OBJECT_ID":"2025-061B","EPOCH":"2026-03-05T21:44:45.666240","MEAN_MOTION":15.12720548,"ECCENTRICITY":0.00167472,"INCLINATION":97.556,"RA_OF_ASC_NODE":41.2098,"ARG_OF_PERICENTER":260.0141,"MEAN_ANOMALY":99.9199,"EPHEMERIS_TYPE":0,"CLASSIFICATION_TYPE":"U","NORAD_CAT_ID":63352,"ELEMENT_SET_NO":999,"REV_AT_EPOCH":5197,"BSTAR":0.00028333155,"MEAN_MOTION_DOT":4.913e-5,"MEAN_MOTION_DDOT":0},{"OBJECT_NAME":"LEMUR-2-KREMPEL-BRO2","OBJECT_ID":"2025-061C","EPOCH":"2026-03-05T21:30:20.019456","MEAN_MOTION":15.13125229,"ECCENTRICITY":0.00177959,"INCLINATION":97.5606,"RA_OF_ASC_NODE":41.6019,"ARG_OF_PERICENTER":252.1236,"MEAN_ANOMALY":107.8054,"EPHEMERIS_TYPE":0,"CLASSIFICATION_TYPE":"U","NORAD_CAT_ID":63353,"ELEMENT_SET_NO":999,"REV_AT_EPOCH":5198,"BSTAR":0.00032453004,"MEAN_MOTION_DOT":5.704e-5,"MEAN_MOTION_DDOT":0},{"OBJECT_NAME":"LEMUR-2-THERMORAPTOR","OBJECT_ID":"2025-061D","EPOCH":"2026-03-05T21:11:21.316704","MEAN_MOTION":15.13203533,"ECCENTRICITY":0.00175763,"INCLINATION":97.5614,"RA_OF_ASC_NODE":41.6461,"ARG_OF_PERICENTER":251.2009,"MEAN_ANOMALY":108.7316,"EPHEMERIS_TYPE":0,"CLASSIFICATION_TYPE":"U","NORAD_CAT_ID":63354,"ELEMENT_SET_NO":999,"REV_AT_EPOCH":5198,"BSTAR":0.00036498527,"MEAN_MOTION_DOT":6.438e-5,"MEAN_MOTION_DDOT":0},{"OBJECT_NAME":"LEMUR-2-NEUROSPICY","OBJECT_ID":"2025-061E","EPOCH":"2026-03-05T22:16:57.578016","MEAN_MOTION":15.13317725,"ECCENTRICITY":0.00151952,"INCLINATION":97.5542,"RA_OF_ASC_NODE":41.3982,"ARG_OF_PERICENTER":254.7691,"MEAN_ANOMALY":105.186,"EPHEMERIS_TYPE":0,"CLASSIFICATION_TYPE":"U","NORAD_CAT_ID":63355,"ELEMENT_SET_NO":999,"REV_AT_EPOCH":5199,"BSTAR":0.00033845449,"MEAN_MOTION_DOT":5.979e-5,"MEAN_MOTION_DDOT":0},{"OBJECT_NAME":"LEMUR-2-TILLINFINITY","OBJECT_ID":"2025-061F","EPOCH":"2026-03-05T22:29:50.732736","MEAN_MOTION":15.13893526,"ECCENTRICITY":0.00166288,"INCLINATION":97.5527,"RA_OF_ASC_NODE":41.6255,"ARG_OF_PERICENTER":241.9529,"MEAN_ANOMALY":118.0021,"EPHEMERIS_TYPE":0,"CLASSIFICATION_TYPE":"U","NORAD_CAT_ID":63356,"ELEMENT_SET_NO":999,"REV_AT_EPOCH":5201,"BSTAR":0.00033968505,"MEAN_MOTION_DOT":6.102e-5,"MEAN_MOTION_DDOT":0}]
