LEMUR-2-ARIANNA         
1 62699U 25009CU  26064.74056101  .00010278  00000+0  81338-3 0  9993
2 62699  97.7013 147.0800 0004484 155.5198 204.6239 15.00793276 62032
LEMUR-2-ALISIA          
1 62706U 25009DB  26064.73814534  .00010284  00000+0  80809-3 0  9992
2 62706  97.7061 147.7305 0006395 168.5385 191.5986 15.01059198 84638
LEMUR-2-ROUNDTRIPPER    
1 62711U 25009DG  26064.69770534  .00011337  00000+0  86915-3 0  9998
2 62711  97.7305 147.6551 0004816 135.0712 225.0903 15.01979624 62088
LEMUR-2-MYNAMEISJEFF    
1 62712U 25009DH  26064.69624325  .00011585  00000+0  88834-3 0  9992
2 62712  97.7353 147.9734 0003986 161.5510 198.5860 15.01969507 62080
LEMUR-2-LEIA-PHILIP     
1 63246U 25052AN  26064.93788406  .00006081  00000+0  53898-3 0  9998
2 63246  97.6963 318.5960 0002879 190.4798 169.6364 14.96578558 53224
LEMUR-2-LIA-MARTIN      
1 63248U 25052AQ  26064.69229540  .00007690  00000+0  67726-3 0  9994
2 63248  97.7008 318.7132 0003244 154.2491 205.8893 14.96744608 53192
LEMUR-2-DELOITTE-1      
1 63259U 25052BB  26064.92845484  .00005818  00000+0  51373-3 0  9994
2 63259  97.7050 319.2580 0003257  86.7997 273.3597 14.96746271 53243
LEMUR-2-EMERSONROSE     
1 63261U 25052BD  26064.67109601  .00007600  00000+0  64534-3 0  9997
2 63261  97.7033 319.3559 0003193  59.5586 300.5952 14.98172264 53239
LEMUR-2-MARACHE-FRAN    
1 63262U 25052BE  26064.70332381  .00009294  00000+0  77479-3 0  9998
2 63262  97.6996 319.5779 0002342  43.6001 316.5407 14.98825559 53250
LEMUR-2-THEFALCONER     
1 63264U 25052BG  26064.93960457  .00005225  00000+0  46534-3 0  9994
2 63264  97.6987 319.0010 0002563  27.3199 332.8156 14.96455894 53247
LEMUR-2-UNTITLED-SC     
1 63351U 25061A   26064.92310640  .00005458  00000+0  31496-3 0  9992
2 63351  97.5557  41.1560 0017108 260.7576  99.1720 15.12646284 51974
LEMUR-2-ESPERANZA       
1 63352U 25061B   26064.90608410  .00004913  00000+0  28333-3 0  9997
2 63352  97.5560  41.2098 0016747 260.0141  99.9199 15.12720548 51979
LEMUR-2-KREMPEL-BRO2    
1 63353U 25061C   26064.89606504  .00005704  00000+0  32453-3 0  9995
2 63353  97.5606  41.6019 0017795 252.1236 107.8054 15.13125229 51985
LEMUR-2-THERMORAPTOR    
1 63354U 25061D   26064.88288561  .00006438  00000+0  36499-3 0  9993
2 63354  97.5614  41.6461 0017576 251.2009 108.7316 15.13203533 51987
LEMUR-2-NEUROSPICY      
1 63355U 25061E   26064.92844419  .00005979  00000+0  33845-3 0  9990
2 63355  97.5542  41.3982 0015195 254.7691 105.1860 15.13317725 51998
LEMUR-2-TILLINFINITY    
1 63356U 25061F   26064.93739274  .00006102  00000+0  33969-3 0  9990
2 63356  97.5527  41.6255 0016628 241.9529 118.0021 15.13893526 52012
